[{"OBJECT_NAME":"ONEWEB-0008","OBJECT_ID":"2019-010C","EPOCH":"2026-03-09T21:35:44.501568","MEAN_MOTION":13.16593372,"ECCENTRICITY":0.00016175,"INCLINATION":87.9001,"RA_OF_ASC_NODE":248.5251,"ARG_OF_PERICENTER":89.3339,"MEAN_ANOMALY":270.7977,"EPHEMERIS_TYPE":0,"CLASSIFICATION_TYPE":"U","NORAD_CAT_ID":44059,"ELEMENT_SET_NO":999,"REV_AT_EPOCH":33866,"BSTAR":-0.00023171046,"MEAN_MOTION_DOT":-7.6e-7,"MEAN_MOTION_DDOT":0},{"OBJECT_NAME":"OPS 4682 DEB","OBJECT_ID":"1965-027EN","EPOCH":"2026-03-09T06:44:49.221600","MEAN_MOTION":13.12091663,"ECCENTRICITY":0.0030631,"INCLINATION":90.2594,"RA_OF_ASC_NODE":10.8321,"ARG_OF_PERICENTER":80.1725,"MEAN_ANOMALY":280.2861,"EPHEMERIS_TYPE":0,"CLASSIFICATION_TYPE":"U","NORAD_CAT_ID":38433,"ELEMENT_SET_NO":999,"REV_AT_EPOCH":61874,"BSTAR":0.0042956076,"MEAN_MOTION_DOT":1.549e-5,"MEAN_MOTION_DDOT":0}]
